[{"OBJECT_NAME":"STARLINK-1559","OBJECT_ID":"2020-055BC","EPOCH":"2026-03-09T05:36:23.522976","MEAN_MOTION":15.29461733,"ECCENTRICITY":0.0004229,"INCLINATION":53.0254,"RA_OF_ASC_NODE":76.0659,"ARG_OF_PERICENTER":33.971,"MEAN_ANOMALY":326.1559,"EPHEMERIS_TYPE":0,"CLASSIFICATION_TYPE":"U","NORAD_CAT_ID":46077,"ELEMENT_SET_NO":999,"REV_AT_EPOCH":30951,"BSTAR":0.0014778793,"MEAN_MOTION_DOT":0.00042685,"MEAN_MOTION_DDOT":0},{"OBJECT_NAME":"STARLINK-31584","OBJECT_ID":"2024-098E","EPOCH":"2026-03-09T00:11:51.537696","MEAN_MOTION":15.27580285,"ECCENTRICITY":8.188e-5,"INCLINATION":42.9997,"RA_OF_ASC_NODE":281.7009,"ARG_OF_PERICENTER":257.1294,"MEAN_ANOMALY":102.9466,"EPHEMERIS_TYPE":0,"CLASSIFICATION_TYPE":"U","NORAD_CAT_ID":59862,"ELEMENT_SET_NO":999,"REV_AT_EPOCH":10174,"BSTAR":-2.0107732e-5,"MEAN_MOTION_DOT":-8.15e-6,"MEAN_MOTION_DDOT":0}]
